COSMOS 2425 (716)       
1 29670U 06062A   17299.45833785  .00000016  00000-0  10000-3 0  9990
2 29670  65.3964 300.4337 0020912 337.5666  63.8147  2.13104943 84333
COSMOS 2426 (717)       
1 29671U 06062B   17298.66515372  .00000010  00000-0  10000-3 0  9996
2 29671  65.4152 300.5537 0018299 174.4951 195.7584  2.13102975 84329
COSMOS 2433 (720)       
1 32275U 07052A   17299.04336265 -.00000011  00000-0  10000-3 0  9997
2 32275  65.5771  61.2276 0002038 214.3104  60.6092  2.13104704 77834
COSMOS 2432 (719)       
1 32276U 07052B   17298.71698751 -.00000012  00000-0  10000-3 0  9993
2 32276  65.5894  61.3128 0009447 339.8083 357.3049  2.13103916 77829
COSMOS 2434 (721)       
1 32393U 07065A   17298.99441880  .00000012  00000-0  00000+0 0  9990
2 32393  65.0134 299.5356 0002855 160.1348 326.2040  2.13102915 76546
COSMOS 2436 (723)       
1 32395U 07065C   17299.46532929  .00000016  00000-0  10000-3 0  9999
2 32395  65.0227 299.5680 0013912 349.0063 187.9451  2.13104275 76481
COSMOS 2456 (730)       
1 36111U 09070A   17299.11674850  .00000014  00000-0  00000+0 0  9992
2 36111  64.1794 179.1009 0004030 323.1004  68.6449  2.13102975 61219
COSMOS 2457 (733)       
1 36112U 09070B   17298.84409591  .00000013  00000-0  00000+0 0  9999
2 36112  64.1618 179.0266 0006265 160.7699 149.7773  2.13101667 61203
COSMOS 2458 (734)       
1 36113U 09070C   17298.77763847  .00000013  00000-0  10000-3 0  9994
2 36113  64.1664 179.0381 0001892  27.6420 280.0057  2.13101879 61206
COSMOS 2459 (731)       
1 36400U 10007A   17298.53197924 -.00000015  00000-0  10000-3 0  9999
2 36400  65.4853  60.3353 0025608 355.1027 108.4678  2.13102116 59555
COSMOS 2461 (735)       
1 36401U 10007B   17298.67067628 -.00000014  00000-0  10000-3 0  9991
2 36401  65.4774  60.3073 0007662  81.4199  39.1697  2.13102104 59554
COSMOS 2460 (732)       
1 36402U 10007C   17298.77330914 -.00000014  00000-0  10000-3 0  9994
2 36402  65.4690  60.2750 0001943 124.9830 115.3741  2.13101688 59557
COSMOS 2464 (736)       
1 37139U 10041C   17298.65653387  .00000008  00000-0  00000+0 0  9996
2 37139  64.6184 299.4698 0021620   5.9410  88.9231  2.13102640 55629
COSMOS 2471 (701K)      
1 37372U 11009A   17299.57627253 -.00000013  00000-0  00000+0 0  9992
2 37372  65.4676  60.1944 0007944 222.8091  52.4932  2.13107673 51843
COSMOS 2474 (742)       
1 37829U 11055A   17299.44492119  .00000014  00000-0  00000+0 0  9997
2 37829  64.5028 179.7100 0007749 247.6339 255.0681  2.13101906 47216
COSMOS 2476 (744)       
1 37867U 11064A   17298.96921139  .00000013  00000-0  00000+0 0  9993
2 37867  64.4829 179.7921 0016828 241.1689 302.5556  2.13101981 46550
COSMOS 2477 (745)       
1 37868U 11064B   17299.06673486  .00000013  00000-0  00000+0 0  9995
2 37868  64.4920 179.8363 0015097 243.5148 194.0895  2.13101878 46518
COSMOS 2475 (743)       
1 37869U 11064C   17298.66752468  .00000013  00000-0  00000+0 0  9999
2 37869  64.4989 179.8426 0019684 270.4928 177.3826  2.13102201 46514
COSMOS 2485 (747)       
1 39155U 13019A   17299.05429770  .00000013  00000-0  00000+0 0  9992
2 39155  64.6529 179.8486 0017672 236.6368  57.3530  2.13102044 35027
COSMOS 2492 (754)       
1 39620U 14012A   17298.74295736 -.00000015  00000-0  10000-3 0  9999
2 39620  65.3591  60.1945 0012811 333.2789 116.2597  2.13103364 27973
COSMOS 2500 (755)       
1 40001U 14032A   17299.58438561 -.00000013  00000-0  00000+0 0  9997
2 40001  65.3003  60.1535 0006755 190.1322  47.7010  2.13102697 26205
COSMOS 2501 (702K)      
1 40315U 14075A   17299.15265067  .00000011  00000-0  00000+0 0  9991
2 40315  64.3434 300.7488 0016985 212.7470 218.2716  2.13098530 22609
COSMOS 2514 (751)       
1 41330U 16008A   17298.69548544 -.00000015  00000-0  00000-0 0  9995
2 41330  65.1001  60.2941 0009688 204.5786 251.6385  2.13103309 13355
COSMOS 2516 (753)       
1 41554U 16032A   17299.16763375  .00000012  00000-0  00000+0 0  9999
2 41554  64.5633 300.5484 0014632 225.1863 125.1977  2.13101653 10965
COSMOS 2522 (752)       
1 42939U 17055A   17298.71555013  .00000008  00000-0  00000+0 0  9996
2 42939  64.7939 300.4623 0010311 249.5089 340.4101  2.13101874   716
